<?xml version="1.0" encoding="UTF-8"?>
<gpx version="1.1" creator="gpx-route-reveal" xmlns="http://www.topografix.com/GPX/1/1">
  <trk><name>Fuzhou Gushan Loop</name><trkseg>
    <trkpt lat="26.082000" lon="119.305000"><ele>80</ele></trkpt>
    <trkpt lat="26.083142" lon="119.304858"><ele>82</ele></trkpt>
    <trkpt lat="26.084173" lon="119.304832"><ele>84</ele></trkpt>
    <trkpt lat="26.085338" lon="119.305000"><ele>86</ele></trkpt>
    <trkpt lat="26.086542" lon="119.305048"><ele>88</ele></trkpt>
    <trkpt lat="26.087594" lon="119.305136"><ele>90</ele></trkpt>
    <trkpt lat="26.088573" lon="119.305422"><ele>92</ele></trkpt>
    <trkpt lat="26.089477" lon="119.305672"><ele>94</ele></trkpt>
    <trkpt lat="26.090549" lon="119.306079"><ele>96</ele></trkpt>
    <trkpt lat="26.091470" lon="119.306554"><ele>98</ele></trkpt>
    <trkpt lat="26.092542" lon="119.306905"><ele>99</ele></trkpt>
    <trkpt lat="26.093587" lon="119.307514"><ele>101</ele></trkpt>
    <trkpt lat="26.094461" lon="119.308010"><ele>103</ele></trkpt>
    <trkpt lat="26.095489" lon="119.308608"><ele>105</ele></trkpt>
    <trkpt lat="26.096221" lon="119.309179"><ele>106</ele></trkpt>
    <trkpt lat="26.097143" lon="119.309946"><ele>108</ele></trkpt>
    <trkpt lat="26.098013" lon="119.310793"><ele>109</ele></trkpt>
    <trkpt lat="26.098760" lon="119.311752"><ele>111</ele></trkpt>
    <trkpt lat="26.099416" lon="119.312623"><ele>112</ele></trkpt>
    <trkpt lat="26.100161" lon="119.313548"><ele>113</ele></trkpt>
    <trkpt lat="26.100869" lon="119.314494"><ele>114</ele></trkpt>
    <trkpt lat="26.101480" lon="119.315310"><ele>115</ele></trkpt>
    <trkpt lat="26.101898" lon="119.316227"><ele>116</ele></trkpt>
    <trkpt lat="26.102219" lon="119.317152"><ele>117</ele></trkpt>
    <trkpt lat="26.102494" lon="119.318112"><ele>118</ele></trkpt>
    <trkpt lat="26.102874" lon="119.319118"><ele>118</ele></trkpt>
    <trkpt lat="26.103120" lon="119.320093"><ele>119</ele></trkpt>
    <trkpt lat="26.103279" lon="119.321300"><ele>119</ele></trkpt>
    <trkpt lat="26.103495" lon="119.322419"><ele>119</ele></trkpt>
    <trkpt lat="26.103512" lon="119.323582"><ele>119</ele></trkpt>
    <trkpt lat="26.103468" lon="119.324644"><ele>120</ele></trkpt>
    <trkpt lat="26.103615" lon="119.325786"><ele>119</ele></trkpt>
    <trkpt lat="26.103575" lon="119.326940"><ele>119</ele></trkpt>
    <trkpt lat="26.103562" lon="119.328117"><ele>119</ele></trkpt>
    <trkpt lat="26.103309" lon="119.329063"><ele>119</ele></trkpt>
    <trkpt lat="26.103025" lon="119.330069"><ele>118</ele></trkpt>
    <trkpt lat="26.102654" lon="119.331265"><ele>118</ele></trkpt>
    <trkpt lat="26.102427" lon="119.332255"><ele>117</ele></trkpt>
    <trkpt lat="26.102079" lon="119.333251"><ele>116</ele></trkpt>
    <trkpt lat="26.101756" lon="119.334244"><ele>115</ele></trkpt>
    <trkpt lat="26.101186" lon="119.335148"><ele>114</ele></trkpt>
    <trkpt lat="26.100654" lon="119.336029"><ele>113</ele></trkpt>
    <trkpt lat="26.100081" lon="119.337071"><ele>112</ele></trkpt>
    <trkpt lat="26.099404" lon="119.337877"><ele>111</ele></trkpt>
    <trkpt lat="26.098861" lon="119.338734"><ele>109</ele></trkpt>
    <trkpt lat="26.098002" lon="119.339416"><ele>108</ele></trkpt>
    <trkpt lat="26.097107" lon="119.340232"><ele>106</ele></trkpt>
    <trkpt lat="26.096377" lon="119.340945"><ele>105</ele></trkpt>
    <trkpt lat="26.095392" lon="119.341602"><ele>103</ele></trkpt>
    <trkpt lat="26.094651" lon="119.342257"><ele>101</ele></trkpt>
    <trkpt lat="26.093869" lon="119.342964"><ele>99</ele></trkpt>
    <trkpt lat="26.092770" lon="119.343580"><ele>98</ele></trkpt>
    <trkpt lat="26.091845" lon="119.344091"><ele>96</ele></trkpt>
    <trkpt lat="26.090770" lon="119.344581"><ele>94</ele></trkpt>
    <trkpt lat="26.089626" lon="119.344955"><ele>92</ele></trkpt>
    <trkpt lat="26.088566" lon="119.345431"><ele>90</ele></trkpt>
    <trkpt lat="26.087616" lon="119.345645"><ele>88</ele></trkpt>
    <trkpt lat="26.086541" lon="119.345777"><ele>86</ele></trkpt>
    <trkpt lat="26.085578" lon="119.346061"><ele>84</ele></trkpt>
    <trkpt lat="26.084424" lon="119.346217"><ele>82</ele></trkpt>
    <trkpt lat="26.083358" lon="119.346171"><ele>80</ele></trkpt>
    <trkpt lat="26.082337" lon="119.346182"><ele>78</ele></trkpt>
    <trkpt lat="26.081322" lon="119.346134"><ele>76</ele></trkpt>
    <trkpt lat="26.080078" lon="119.345966"><ele>74</ele></trkpt>
    <trkpt lat="26.078847" lon="119.345923"><ele>72</ele></trkpt>
    <trkpt lat="26.077885" lon="119.345794"><ele>70</ele></trkpt>
    <trkpt lat="26.076765" lon="119.345376"><ele>68</ele></trkpt>
    <trkpt lat="26.075832" lon="119.345171"><ele>66</ele></trkpt>
    <trkpt lat="26.074681" lon="119.344772"><ele>64</ele></trkpt>
    <trkpt lat="26.073546" lon="119.344403"><ele>62</ele></trkpt>
    <trkpt lat="26.072646" lon="119.343792"><ele>60</ele></trkpt>
    <trkpt lat="26.071686" lon="119.343257"><ele>59</ele></trkpt>
    <trkpt lat="26.070693" lon="119.342770"><ele>57</ele></trkpt>
    <trkpt lat="26.069780" lon="119.342037"><ele>55</ele></trkpt>
    <trkpt lat="26.068937" lon="119.341413"><ele>54</ele></trkpt>
    <trkpt lat="26.068030" lon="119.340621"><ele>52</ele></trkpt>
    <trkpt lat="26.067401" lon="119.339888"><ele>51</ele></trkpt>
    <trkpt lat="26.066646" lon="119.339076"><ele>49</ele></trkpt>
    <trkpt lat="26.065840" lon="119.338138"><ele>48</ele></trkpt>
    <trkpt lat="26.065145" lon="119.337275"><ele>47</ele></trkpt>
    <trkpt lat="26.064465" lon="119.336268"><ele>46</ele></trkpt>
    <trkpt lat="26.063786" lon="119.335355"><ele>45</ele></trkpt>
    <trkpt lat="26.063205" lon="119.334497"><ele>44</ele></trkpt>
    <trkpt lat="26.062866" lon="119.333363"><ele>43</ele></trkpt>
    <trkpt lat="26.062393" lon="119.332387"><ele>42</ele></trkpt>
    <trkpt lat="26.061967" lon="119.331230"><ele>42</ele></trkpt>
    <trkpt lat="26.061813" lon="119.330189"><ele>41</ele></trkpt>
    <trkpt lat="26.061577" lon="119.329198"><ele>41</ele></trkpt>
    <trkpt lat="26.061497" lon="119.328019"><ele>41</ele></trkpt>
    <trkpt lat="26.061261" lon="119.326904"><ele>41</ele></trkpt>
    <trkpt lat="26.061180" lon="119.325796"><ele>40</ele></trkpt>
    <trkpt lat="26.061249" lon="119.324748"><ele>41</ele></trkpt>
    <trkpt lat="26.061452" lon="119.323529"><ele>41</ele></trkpt>
    <trkpt lat="26.061538" lon="119.322387"><ele>41</ele></trkpt>
    <trkpt lat="26.061818" lon="119.321225"><ele>41</ele></trkpt>
    <trkpt lat="26.061954" lon="119.320134"><ele>42</ele></trkpt>
    <trkpt lat="26.062215" lon="119.319005"><ele>42</ele></trkpt>
    <trkpt lat="26.062480" lon="119.318086"><ele>43</ele></trkpt>
    <trkpt lat="26.062857" lon="119.317167"><ele>44</ele></trkpt>
    <trkpt lat="26.063320" lon="119.316027"><ele>45</ele></trkpt>
    <trkpt lat="26.063969" lon="119.315148"><ele>46</ele></trkpt>
    <trkpt lat="26.064660" lon="119.314323"><ele>47</ele></trkpt>
    <trkpt lat="26.065363" lon="119.313301"><ele>48</ele></trkpt>
    <trkpt lat="26.066006" lon="119.312325"><ele>49</ele></trkpt>
    <trkpt lat="26.066668" lon="119.311338"><ele>51</ele></trkpt>
    <trkpt lat="26.067368" lon="119.310666"><ele>52</ele></trkpt>
    <trkpt lat="26.068075" lon="119.309973"><ele>54</ele></trkpt>
    <trkpt lat="26.068879" lon="119.309214"><ele>55</ele></trkpt>
    <trkpt lat="26.069871" lon="119.308670"><ele>57</ele></trkpt>
    <trkpt lat="26.070778" lon="119.308089"><ele>59</ele></trkpt>
    <trkpt lat="26.071597" lon="119.307429"><ele>60</ele></trkpt>
    <trkpt lat="26.072690" lon="119.306903"><ele>62</ele></trkpt>
    <trkpt lat="26.073683" lon="119.306478"><ele>64</ele></trkpt>
    <trkpt lat="26.074555" lon="119.306056"><ele>66</ele></trkpt>
    <trkpt lat="26.075583" lon="119.305767"><ele>68</ele></trkpt>
    <trkpt lat="26.076526" lon="119.305566"><ele>70</ele></trkpt>
    <trkpt lat="26.077463" lon="119.305187"><ele>72</ele></trkpt>
    <trkpt lat="26.078567" lon="119.305011"><ele>74</ele></trkpt>
    <trkpt lat="26.079574" lon="119.304725"><ele>76</ele></trkpt>
    <trkpt lat="26.080785" lon="119.304533"><ele>78</ele></trkpt>
    <trkpt lat="26.081912" lon="119.304512"><ele>80</ele></trkpt>
  </trkseg></trk>
</gpx>
